NORAD_CAT_ID,OBJECT_NAME,OBJECT_TYPE,EPOCH,MEAN_MOTION,ECCENTRICITY,INCLINATION,RA_OF_ASC_NODE,ARG_OF_PERICENTER,MEAN_ANOMALY,BSTAR,MEAN_MOTION_DOT,MEAN_MOTION_DDOT,TLE_LINE0,TLE_LINE1,TLE_LINE2,SEMIMAJOR_AXIS,PERIOD,APOGEE,PERIGEE,DECAYED
52474.0,STARLINK-3855,PAYLOAD,2023-04-04 11:38:17,15.0885175,0.000118,53.2158,173.4664,89.5261,270.5866,0.00052963,8.154e-05,0.0,0 STARLINK-3855,1 52474U 22049Z   23094.48492777  .00008154  00000-0  52963-3 0  9991,2 52474  53.2158 173.4664 0001180  89.5261 270.5866 15.08851750 50986,6917.844,95.437,540.526,538.893,0.0
52474.0,STARLINK-3855,PAYLOAD,2023-04-05 05:07:32,15.088463,0.0001244,53.2161,170.196,76.1795,283.9335,0.00024218,3.569e-05,0.0,0 STARLINK-3855,1 52474U 22049Z   23095.21356939  .00003569  00000-0  24218-3 0  9999,2 52474  53.2161 170.1960 0001244  76.1795 283.9335 15.08846300 51095,6917.861,95.437,540.587,538.866,0.0
52474.0,STARLINK-3855,PAYLOAD,2023-04-05 11:29:05,15.08841059,0.0001165,53.2159,169.0045,92.7316,267.3809,0.00013858,1.918e-05,0.0,0 STARLINK-3855,1 52474U 22049Z   23095.47853029  .00001918  00000-0  13858-3 0  9993,2 52474  53.2159 169.0045 0001165  92.7316 267.3809 15.08841059 50972,6917.877,95.437,540.548,538.936,0.0
52474.0,STARLINK-3855,PAYLOAD,2023-04-06 09:44:28,15.08848027,0.0001153,53.2157,164.842,82.9678,277.1445,0.00017806,2.548e-05,0.0,0 STARLINK-3855,1 52474U 22049Z   23096.40588821  .00002548  00000-0  17806-3 0  9999,2 52474  53.2157 164.8420 0001153  82.9678 277.1445 15.08848027 51270,6917.856,95.437,540.518,538.923,0.0
52474.0,STARLINK-3855,PAYLOAD,2023-04-06 11:19:51,15.08849447,0.0001181,53.216,164.5448,85.7313,274.3814,0.00021363,3.115e-05,0.0,0 STARLINK-3855,1 52474U 22049Z   23096.47212745  .00003115  00000-0  21363-3 0  9999,2 52474  53.2160 164.5448 0001181  85.7313 274.3814 15.08849447 51129,6917.852,95.437,540.534,538.9,0.0
52474.0,STARLINK-3855,PAYLOAD,2023-04-07 04:49:06,15.08840555,0.000134,53.2161,161.2748,92.4957,267.6188,0.00013156,1.807e-05,0.0,0 STARLINK-3855,1 52474U 22049Z   23097.20077100  .00001807  00000-0  13156-3 0  9992,2 52474  53.2161 161.2748 0001340  92.4957 267.6188 15.08840555 51392,6917.879,95.438,540.671,538.817,0.0
52474.0,STARLINK-3855,PAYLOAD,2023-04-07 12:46:02,15.08843972,0.0001317,53.2164,159.7897,83.5149,276.5993,0.00017949,2.57e-05,0.0,0 STARLINK-3855,1 52474U 22049Z   23097.53196967  .00002570  00000-0  17949-3 0  9993,2 52474  53.2164 159.7897 0001317  83.5149 276.5993 15.08843972 51287,6917.868,95.437,540.644,538.822,0.0
52474.0,STARLINK-3855,PAYLOAD,2023-04-08 09:26:03,15.08822003,0.0001102,53.215,155.9182,77.3065,282.8051,-0.00025827,-4.394e-05,0.0,0 STARLINK-3855,1 52474U 22049Z   23098.39310121 -.00004394  00000-0 -25827-3 0  9990,2 52474  53.2150 155.9182 0001102  77.3065 282.8051 15.08822003 51576,6917.935,95.439,540.563,539.038,0.0
52474.0,STARLINK-3855,PAYLOAD,2023-04-09 10:52:15,15.08828787,0.0001262,53.2151,151.1637,89.4038,270.7099,7.3843e-05,8.87e-06,0.0,0 STARLINK-3855,1 52474U 22049Z   23099.45295280  .00000887  00000-0  73843-4 0  9999,2 52474  53.2151 151.1637 0001262  89.4038 270.7099 15.08828787 51732,6917.915,95.438,540.653,538.907,0.0
52474.0,STARLINK-3855,PAYLOAD,2023-04-09 20:24:34,15.08836129,0.0001301,53.2153,149.3797,85.2868,274.8273,0.00035736,5.403e-05,0.0,0 STARLINK-3855,1 52474U 22049Z   23099.85039465  .00005403  00000-0  35736-3 0  9991,2 52474  53.2153 149.3797 0001301  85.2868 274.8273 15.08836129 51636,6917.892,95.438,540.657,538.857,0.0
52474.0,STARLINK-3855,PAYLOAD,2023-04-10 04:21:29,15.08851177,0.0001252,53.2143,147.8931,89.4468,270.6667,0.00089054,0.00013918,0.0,0 STARLINK-3855,1 52474U 22049Z   23100.18159500  .00013918  00000-0  89054-3 0  9995,2 52474  53.2143 147.8931 0001252  89.4468 270.6667 15.08851177 51849,6917.846,95.437,540.577,538.845,0.0
52474.0,STARLINK-3855,PAYLOAD,2023-04-10 12:18:25,15.08868657,0.0001294,53.2138,146.406,89.6072,270.5068,0.0011509,0.0001809,0.0,0 STARLINK-3855,1 52474U 22049Z   23100.51278956  .00018090  00000-0  11509-2 0  9994,2 52474  53.2138 146.4060 0001294  89.6072 270.5068 15.08868657 51733,6917.793,95.436,540.553,538.763,0.0
52474.0,STARLINK-3855,PAYLOAD,2023-04-11 08:58:24,15.08874677,0.0001309,53.2138,142.54,88.4519,271.6623,0.00058237,9.001e-05,0.0,0 STARLINK-3855,1 52474U 22049Z   23101.37389437  .00009001  00000-0  58237-3 0  9998,2 52474  53.2138 142.5400 0001309  88.4519 271.6623 15.08874677 52029,6917.774,95.435,540.545,538.734,0.0
52474.0,STARLINK-3855,PAYLOAD,2023-04-11 20:06:06,15.08862496,0.0001863,53.213,140.4642,49.0837,311.0317,0.00034376,5.19e-05,0.0,0 STARLINK-3855,1 52474U 22049Z   23101.83757262  .00005190  00000-0  34376-3 0  9997,2 52474  53.2130 140.4642 0001863  49.0837 311.0317 15.08862496 51931,6917.812,95.436,540.965,538.388,0.0
52474.0,STARLINK-3855,PAYLOAD,2023-04-12 05:38:25,15.08841976,0.0001353,53.2146,138.6745,77.2274,282.8869,-0.0002877,-4.864e-05,0.0,0 STARLINK-3855,1 52474U 22049Z   23102.23501390 -.00004864  00000-0 -28770-3 0  9991,2 52474  53.2146 138.6745 0001353  77.2274 282.8869 15.08841976 52155,6917.874,95.437,540.675,538.803,0.0
52474.0,STARLINK-3855,PAYLOAD,2023-04-12 08:49:11,15.08841855,0.0001418,53.2146,138.0797,76.9181,283.1969,-0.00019722,-3.426e-05,0.0,0 STARLINK-3855,1 52474U 22049Z   23102.36749405 -.00003426  00000-0 -19722-3 0  9996,2 52474  53.2146 138.0797 0001418  76.9181 283.1969 15.08841855 52017,6917.875,95.437,540.721,538.759,0.0
52474.0,STARLINK-3855,PAYLOAD,2023-04-13 08:39:58,15.08847514,0.0001384,53.2155,133.6188,88.5853,271.5298,0.00010232,1.341e-05,0.0,0 STARLINK-3855,1 52474U 22049Z   23103.36109288  .00001341  00000-0  10232-3 0  9995,2 52474  53.2155 133.6188 0001384  88.5853 271.5298 15.08847514 52169,6917.857,95.437,540.68,538.765,0.0
52474.0,STARLINK-3855,PAYLOAD,2023-04-13 13:26:07,15.08851038,0.000146,53.2153,132.7254,101.9331,258.1825,6.3841e-05,7.28e-06,0.0,0 STARLINK-3855,1 52474U 22049Z   23103.55980952  .00000728  00000-0  63841-4 0  9994,2 52474  53.2153 132.7254 0001460 101.9331 258.1825 15.08851038 52351,6917.847,95.437,540.722,538.702,0.0
52474.0,STARLINK-3855,PAYLOAD,2023-04-14 06:55:22,15.08840702,0.0001584,53.2155,129.4544,99.631,260.4861,0.00015931,2.248e-05,0.0,0 STARLINK-3855,1 52474U 22049Z   23104.28845589  .00002248  00000-0  15931-3 0  9996,2 52474  53.2155 129.4544 0001584  99.6310 260.4861 15.08840702 52469,6917.878,95.438,540.839,538.647,0.0
52474.0,STARLINK-3855,PAYLOAD,2023-04-14 11:41:31,15.08842113,0.0001554,53.2152,128.5622,99.9579,260.1589,0.00013985,1.939e-05,0.0,0 STARLINK-3855,1 52474U 22049Z   23104.48717477  .00001939  00000-0  13985-3 0  9995,2 52474  53.2152 128.5622 0001554  99.9579 260.1589 15.08842113 52338,6917.874,95.437,540.814,538.664,0.0
52474.0,STARLINK-3855,PAYLOAD,2023-04-15 06:46:09,15.08842379,0.0001522,53.2148,124.994,95.5616,264.555,5.6252e-05,6.07e-06,0.0,0 STARLINK-3855,1 52474U 22049Z   23105.28205522  .00000607  00000-0  56252-4 0  9993,2 52474  53.2148 124.9940 0001522  95.5616 264.5550 15.08842379 52458,6917.873,95.437,540.791,538.685,0.0
52474.0,STARLINK-3855,PAYLOAD,2023-04-15 17:53:51,15.08843449,0.0001483,53.2146,122.9131,86.3151,273.801,7.0903e-05,8.41e-06,0.0,0 STARLINK-3855,1 52474U 22049Z   23105.74573488  .00000841  00000-0  70903-4 0  9992,2 52474  53.2146 122.9131 0001483  86.3151 273.8010 15.08843449 52682,6917.87,95.437,540.761,538.709,0.0
52474.0,STARLINK-3855,PAYLOAD,2023-04-16 06:36:57,15.08834522,0.0001559,53.2159,120.5341,93.3482,266.7688,-2.4454e-05,-6.77e-06,0.0,0 STARLINK-3855,1 52474U 22049Z   23106.27566039 -.00000677  00000-0 -24454-4 0  9994,2 52474  53.2159 120.5341 0001559  93.3482 266.7688 15.08834522 52608,6917.897,95.438,540.841,538.684,0.0
52474.0,STARLINK-3855,PAYLOAD,2023-04-16 17:44:39,15.08831843,0.000159,53.2163,118.4533,91.3917,268.7257,0.00012354,1.678e-05,0.0,0 STARLINK-3855,1 52474U 22049Z   23106.73934418  .00001678  00000-0  12354-3 0  9990,2 52474  53.2163 118.4533 0001590  91.3917 268.7257 15.08831843 52672,6917.905,95.438,540.87,538.67,0.0
52474.0,STARLINK-3855,PAYLOAD,2023-04-17 09:38:30,15.0883984,0.0001579,53.2178,115.4802,90.1393,269.978,8.0936e-05,1e-05,0.0,0 STARLINK-3855,1 52474U 22049Z   23107.40174312  .00001000  00000-0  80936-4 0  9995,2 52474  53.2178 115.4802 0001579  90.1393 269.9780 15.08839840 52934,6917.881,95.438,540.838,538.654,0.0
52474.0,STARLINK-3855,PAYLOAD,2023-04-17 17:35:26,15.08840491,0.0001584,53.218,113.9936,89.4857,270.6316,8.2767e-05,1.029e-05,0.0,0 STARLINK-3855,1 52474U 22049Z   23107.73294303  .00001029  00000-0  82767-4 0  9999,2 52474  53.2180 113.9936 0001584  89.4857 270.6316 15.08840491 52826,6917.879,95.438,540.84,538.648,0.0
52474.0,STARLINK-3855,PAYLOAD,2023-04-18 09:29:17,15.08846577,0.0001397,53.2166,111.0188,91.7245,268.3907,0.00017642,2.521e-05,0.0,0 STARLINK-3855,1 52474U 22049Z   23108.39533778  .00002521  00000-0  17642-3 0  9991,2 52474  53.2166 111.0188 0001397  91.7245 268.3907 15.08846577 52929,6917.86,95.437,540.692,538.759,0.0
52474.0,STARLINK-3855,PAYLOAD,2023-04-18 17:26:13,15.08835679,0.000161,53.2159,109.5313,82.555,277.5625,5.1611e-05,5.33e-06,0.0,0 STARLINK-3855,1 52474U 22049Z   23108.72654619  .00000533  00000-0  51611-4 0  9992,2 52474  53.2159 109.5313 0001610  82.5550 277.5625 15.08835679 53132,6917.894,95.438,540.872,538.645,0.0
52474.0,STARLINK-3855,PAYLOAD,2023-04-19 09:20:05,15.08835677,0.0001391,53.2148,106.5573,85.158,274.9571,3.0436e-05,1.96e-06,0.0,0 STARLINK-3855,1 52474U 22049Z   23109.38894832  .00000196  00000-0  30436-4 0  9995,2 52474  53.2148 106.5573 0001391  85.1580 274.9571 15.08835677 53075,6917.894,95.438,540.721,538.796,0.0
52474.0,STARLINK-3855,PAYLOAD,2023-04-19 17:17:00,15.08841986,0.0001425,53.2165,105.0715,88.2431,271.8725,8.6356e-05,1.087e-05,0.0,0 STARLINK-3855,1 52474U 22049Z   23109.72014646  .00001087  00000-0  86356-4 0  9992,2 52474  53.2165 105.0715 0001425  88.2431 271.8725 15.08841986 53126,6917.874,95.437,540.725,538.754,0.0
